[{"OBJECT_NAME":"GAOFEN-3","OBJECT_ID":"2016-049A","EPOCH":"2026-03-10T00:17:49.684704","MEAN_MOTION":14.42215824,"ECCENTRICITY":0.00016662,"INCLINATION":98.4056,"RA_OF_ASC_NODE":78.2808,"ARG_OF_PERICENTER":90.4682,"MEAN_ANOMALY":269.6698,"EPHEMERIS_TYPE":0,"CLASSIFICATION_TYPE":"U","NORAD_CAT_ID":41727,"ELEMENT_SET_NO":999,"REV_AT_EPOCH":50435,"BSTAR":-1.4677779e-5,"MEAN_MOTION_DOT":-9.2e-7,"MEAN_MOTION_DDOT":0},{"OBJECT_NAME":"FENGYUN 1C DEB","OBJECT_ID":"1999-025BRE","EPOCH":"2026-02-09T05:28:45.243552","MEAN_MOTION":14.35050589,"ECCENTRICITY":0.00654067,"INCLINATION":98.9646,"RA_OF_ASC_NODE":219.4562,"ARG_OF_PERICENTER":314.7278,"MEAN_ANOMALY":44.8592,"EPHEMERIS_TYPE":0,"CLASSIFICATION_TYPE":"U","NORAD_CAT_ID":31350,"ELEMENT_SET_NO":999,"REV_AT_EPOCH":71092,"BSTAR":0.00053583528,"MEAN_MOTION_DOT":1.517e-5,"MEAN_MOTION_DDOT":0}]
